IRIDIUM 166             
1 43570U 18061B   25238.24396421  .00000075  00000+0  19686-4 0  9991
2 43570  86.4034 179.9907 0002443  87.7772 272.3704 14.34218139371124
IRIDIUM 158             
1 43571U 18061C   25238.35178660  .00000244  00000+0  80024-4 0  9999
2 43571  86.4033 179.9555 0002129  88.1368 272.0071 14.34219241371107
IRIDIUM 165             
1 43572U 18061D   25238.23762229  .00000023  00000+0  12200-5 0  9994
2 43572  86.4035 180.0436 0002384  84.4873 275.6594 14.34217552371117
IRIDIUM 155             
1 43573U 18061E   25238.54840873  .00000034  00000+0  51392-5 0  9998
2 43573  86.4032 179.7981 0002211  91.8805 268.2644 14.34217736371120
IRIDIUM 154             
1 43574U 18061F   25238.59916330  .00000252  00000+0  82761-4 0  9991
2 43574  86.4035 179.8957 0002306  84.9998 275.1462 14.34215458371189
IRIDIUM 163             
1 43575U 18061G   25238.58012134  .00000082  00000+0  22261-4 0  9990
2 43575  86.4033 179.8284 0002092  85.1708 274.9727 14.34217932371152
IRIDIUM 156             
1 43576U 18061H   25238.27567720  .00000046  00000+0  95081-5 0  9994
2 43576  86.4033 179.9623 0002353  92.4932 267.6533 14.34217891371104
IRIDIUM 164             
1 43577U 18061J   25238.39618698  .00000056  00000+0  12882-4 0  9997
2 43577  86.4035 179.9476 0002475  83.7610 276.3868 14.34217861371165
